[Satellite]
VERSION=1.1
NAME=IRIDIUM 161
NICKNAME=IRIDIUM 161
TLE1=1 43478U 18047C   22342.52732978  .00000386  00000+0  10886-3 0  9994
TLE2=2 43478  86.4493 266.1303 0001881  90.7652 269.3764 14.43281778239556
STATUS=0
